{
  "type": "FeatureCollection",
  "metadata": {
    "created_at": "2026-06-25",
    "source": "UOM airspace information query page, logged-in manual session",
    "district": "Weiyang District, Xi'an, Shaanxi",
    "roi_pixels": {
      "x1": 760,
      "y1": 450,
      "x2": 1440,
      "y2": 930
    },
    "calibration": {
      "top_left": {
        "pixel": [
          760,
          450
        ],
        "lon": 108.77111111111111,
        "lat": 34.334722222222226,
        "raw": "E108 46 16 / N34 20 05"
      },
      "top_right": {
        "pixel": [
          1440,
          450
        ],
        "lon": 109.00444444444445,
        "lat": 34.334722222222226,
        "raw": "E109 00 16 / N34 20 05"
      },
      "bottom_left": {
        "pixel": [
          760,
          930
        ],
        "lon": 108.77111111111111,
        "lat": 34.198611111111106,
        "raw": "E108 46 16 / N34 11 55"
      },
      "bottom_right": {
        "pixel": [
          1440,
          930
        ],
        "lon": 109.00444444444445,
        "lat": 34.198611111111106,
        "raw": "E109 00 16 / N34 11 55"
      }
    },
    "warning": "This is a screenshot-derived reference layer, not official UOM/USS coordinate geometry."
  },
  "features": [
    {
      "type": "Feature",
      "properties": {
        "name": "weiyang_visible_flyable_area_1",
        "province": "Shaanxi",
        "city": "Xi'an",
        "district": "Weiyang",
        "area_type": "flyable_airspace_reference",
        "source": "UOM airspace information query page",
        "source_screenshot": "data/uom_shaanxi/screenshots/weiyang_zoomed_out_2026-06-25.png",
        "zoom_level": 12,
        "precision": "screenshot_calibrated_reference_only",
        "usage": "reference_only_preflight_required",
        "contour_area_px": 1843.5
      },
      "geometry": {
        "type": "Polygon",
        "coordinates": [
          [
            [
              108.9691013,
              34.2238484
            ],
            [
              108.9718464,
              34.2159086
            ],
            [
              108.9715033,
              34.2034317
            ],
            [
              108.9852288,
              34.204566
            ],
            [
              108.985915,
              34.2059838
            ],
            [
              108.9879739,
              34.2059838
            ],
            [
              108.9879739,
              34.2074016
            ],
            [
              108.9811111,
              34.2130729
            ],
            [
              108.9773366,
              34.2181771
            ],
            [
              108.9749346,
              34.2184606
            ],
            [
              108.9691013,
              34.2238484
            ]
          ]
        ]
      }
    },
    {
      "type": "Feature",
      "properties": {
        "name": "weiyang_visible_flyable_area_2",
        "province": "Shaanxi",
        "city": "Xi'an",
        "district": "Weiyang",
        "area_type": "flyable_airspace_reference",
        "source": "UOM airspace information query page",
        "source_screenshot": "data/uom_shaanxi/screenshots/weiyang_zoomed_out_2026-06-25.png",
        "zoom_level": 12,
        "precision": "screenshot_calibrated_reference_only",
        "usage": "reference_only_preflight_required",
        "contour_area_px": 49119.5
      },
      "geometry": {
        "type": "Polygon",
        "coordinates": [
          [
            [
              108.8520915,
              34.2882176
            ],
            [
              108.8520915,
              34.2666667
            ],
            [
              108.8095425,
              34.2414294
            ],
            [
              108.8246405,
              34.2005961
            ],
            [
              108.8397386,
              34.2059838
            ],
            [
              108.833219,
              34.2159086
            ],
            [
              108.8363072,
              34.2357581
            ],
            [
              108.8586111,
              34.2414294
            ],
            [
              108.8754248,
              34.2315046
            ],
            [
              108.8774837,
              34.215625
            ],
            [
              108.8644444,
              34.204566
            ],
            [
              108.8466013,
              34.204566
            ],
            [
              108.8291013,
              34.1988947
            ],
            [
              108.9069935,
              34.2003125
            ],
            [
              108.9059641,
              34.2181771
            ],
            [
              108.918317,
              34.2346238
            ],
            [
              108.9337582,
              34.2431308
            ],
            [
              108.9471405,
              34.2374595
            ],
            [
              108.9512582,
              34.2414294
            ],
            [
              108.9430229,
              34.2496528
            ],
            [
              108.9323856,
              34.2499363
            ],
            [
              108.9279248,
              34.2635475
            ],
            [
              108.9152288,
              34.2760243
            ],
            [
              108.908366,
              34.2760243
            ],
            [
              108.9166013,
              34.2632639
            ],
            [
              108.9152288,
              34.2519213
            ],
            [
              108.9039052,
              34.241713
            ],
            [
              108.8939542,
              34.241713
            ],
            [
              108.8901797,
              34.2349074
            ],
            [
              108.883317,
              34.2360417
            ],
            [
              108.8716503,
              34.2556076
            ],
            [
              108.8716503,
              34.2660995
            ],
            [
              108.8850327,
              34.2785764
            ],
            [
              108.8520915,
              34.2882176
            ]
          ]
        ]
      }
    },
    {
      "type": "Feature",
      "properties": {
        "name": "weiyang_visible_flyable_area_3",
        "province": "Shaanxi",
        "city": "Xi'an",
        "district": "Weiyang",
        "area_type": "flyable_airspace_reference",
        "source": "UOM airspace information query page",
        "source_screenshot": "data/uom_shaanxi/screenshots/weiyang_zoomed_out_2026-06-25.png",
        "zoom_level": 12,
        "precision": "screenshot_calibrated_reference_only",
        "usage": "reference_only_preflight_required",
        "contour_area_px": 18688.5
      },
      "geometry": {
        "type": "Polygon",
        "coordinates": [
          [
            [
              108.8455719,
              34.2910532
            ],
            [
              108.8369935,
              34.289919
            ],
            [
              108.8366503,
              34.2910532
            ],
            [
              108.8291013,
              34.2938889
            ],
            [
              108.8273856,
              34.2936053
            ],
            [
              108.8270425,
              34.2910532
            ],
            [
              108.8198366,
              34.2910532
            ],
            [
              108.8191503,
              34.2924711
            ],
            [
              108.8167484,
              34.2927546
            ],
            [
              108.8164052,
              34.296441
            ],
            [
              108.813317,
              34.296441
            ],
            [
              108.8074837,
              34.2992766
            ],
            [
              108.7875817,
              34.2975752
            ],
            [
              108.7903268,
              34.2933218
            ],
            [
              108.7916993,
              34.2856655
            ],
            [
              108.7944444,
              34.2822627
            ],
            [
              108.7944444,
              34.27886
            ],
            [
              108.7971895,
              34.2757407
            ],
            [
              108.7985621,
              34.2678009
            ],
            [
              108.8013072,
              34.2646817
            ],
            [
              108.8026797,
              34.2567419
            ],
            [
              108.8054248,
              34.2547569
            ],
            [
              108.8071405,
              34.2456829
            ],
            [
              108.8129739,
              34.2510706
            ],
            [
              108.8153758,
              34.2513542
            ],
            [
              108.8167484,
              34.2544734
            ],
            [
              108.8222386,
              34.2567419
            ],
            [
              108.8239542,
              34.2609954
            ],
            [
              108.8328758,
              34.2621296
            ],
            [
              108.8345915,
              34.2649653
            ],
            [
              108.8441993,
              34.2678009
            ],
            [
              108.8441993,
              34.270353
            ],
            [
              108.8469444,
              34.2712037
            ],
            [
              108.8469444,
              34.2893519
            ],
            [
              108.8455719,
              34.2910532
            ]
          ]
        ]
      }
    },
    {
      "type": "Feature",
      "properties": {
        "name": "weiyang_visible_flyable_area_4",
        "province": "Shaanxi",
        "city": "Xi'an",
        "district": "Weiyang",
        "area_type": "flyable_airspace_reference",
        "source": "UOM airspace information query page",
        "source_screenshot": "data/uom_shaanxi/screenshots/weiyang_zoomed_out_2026-06-25.png",
        "zoom_level": 12,
        "precision": "screenshot_calibrated_reference_only",
        "usage": "reference_only_preflight_required",
        "contour_area_px": 24250.5
      },
      "geometry": {
        "type": "Polygon",
        "coordinates": [
          [
            [
              108.7916993,
              34.3151563
            ],
            [
              108.8040523,
              34.3089178
            ],
            [
              108.8078268,
              34.3089178
            ],
            [
              108.810915,
              34.3060822
            ],
            [
              108.8270425,
              34.3021123
            ],
            [
              108.8273856,
              34.3006944
            ],
            [
              108.8325327,
              34.3006944
            ],
            [
              108.8373366,
              34.2978588
            ],
            [
              108.8431699,
              34.2978588
            ],
            [
              108.8455719,
              34.2950231
            ],
            [
              108.8572386,
              34.2936053
            ],
            [
              108.863415,
              34.2896354
            ],
            [
              108.8671895,
              34.2896354
            ],
            [
              108.8678758,
              34.2921875
            ],
            [
              108.8709641,
              34.2921875
            ],
            [
              108.8713072,
              34.2887847
            ],
            [
              108.8812582,
              34.2839641
            ],
            [
              108.8864052,
              34.2839641
            ],
            [
              108.890866,
              34.281412
            ],
            [
              108.9069935,
              34.281412
            ],
            [
              108.9056209,
              34.2842477
            ],
            [
              108.9004739,
              34.2845313
            ],
            [
              108.9001307,
              34.2876505
            ],
            [
              108.8860621,
              34.287934
            ],
            [
              108.8867484,
              34.2975752
            ],
            [
              108.8894935,
              34.2989931
            ],
            [
              108.8726797,
              34.3157234
            ],
            [
              108.8706209,
              34.3157234
            ],
            [
              108.8671895,
              34.3199769
            ],
            [
              108.863415,
              34.3202604
            ],
            [
              108.863415,
              34.3236632
            ],
            [
              108.8534641,
              34.3347222
            ],
            [
              108.8438562,
              34.3347222
            ],
            [
              108.8421405,
              34.3321701
            ],
            [
              108.8356209,
              34.3307523
            ],
            [
              108.8242974,
              34.3239468
            ],
            [
              108.8167484,
              34.3228125
            ],
            [
              108.8160621,
              34.3211111
            ],
            [
              108.8085131,
              34.3199769
            ],
            [
              108.8037092,
              34.3171412
            ],
            [
              108.7916993,
              34.3151563
            ]
          ]
        ]
      }
    }
  ]
}
